[{"OBJECT_NAME":"HELIOS 1B","OBJECT_ID":"1999-064A","EPOCH":"2026-03-20T16:14:42.321408","MEAN_MOTION":14.87739205,"ECCENTRICITY":0.00021825,"INCLINATION":98.1683,"RA_OF_ASC_NODE":342.2425,"ARG_OF_PERICENTER":59.512,"MEAN_ANOMALY":300.6311,"EPHEMERIS_TYPE":0,"CLASSIFICATION_TYPE":"U","NORAD_CAT_ID":25977,"ELEMENT_SET_NO":999,"REV_AT_EPOCH":68689,"BSTAR":0.0001713524,"MEAN_MOTION_DOT":1.504e-5,"MEAN_MOTION_DDOT":0},{"OBJECT_NAME":"TERRA","OBJECT_ID":"1999-068A","EPOCH":"2026-03-20T22:41:03.217632","MEAN_MOTION":14.61025681,"ECCENTRICITY":0.00033223,"INCLINATION":97.957,"RA_OF_ASC_NODE":132.9487,"ARG_OF_PERICENTER":127.4032,"MEAN_ANOMALY":284.2362,"EPHEMERIS_TYPE":0,"CLASSIFICATION_TYPE":"U","NORAD_CAT_ID":25994,"ELEMENT_SET_NO":999,"REV_AT_EPOCH":39672,"BSTAR":7.7700957e-5,"MEAN_MOTION_DOT":3.37e-6,"MEAN_MOTION_DDOT":0},{"OBJECT_NAME":"SL-16 R/B","OBJECT_ID":"2000-006B","EPOCH":"2026-03-20T23:07:20.903232","MEAN_MOTION":14.15823582,"ECCENTRICITY":0.00161686,"INCLINATION":71.0005,"RA_OF_ASC_NODE":74.1299,"ARG_OF_PERICENTER":172.5095,"MEAN_ANOMALY":187.6273,"EPHEMERIS_TYPE":0,"CLASSIFICATION_TYPE":"U","NORAD_CAT_ID":26070,"ELEMENT_SET_NO":999,"REV_AT_EPOCH":35015,"BSTAR":-2.29942e-7,"MEAN_MOTION_DOT":-4.8e-7,"MEAN_MOTION_DDOT":0},{"OBJECT_NAME":"TITAN 4B R/B","OBJECT_ID":"2000-047B","EPOCH":"2026-03-20T23:02:22.308288","MEAN_MOTION":15.0966426,"ECCENTRICITY":0.0039257,"INCLINATION":67.9913,"RA_OF_ASC_NODE":8.8169,"ARG_OF_PERICENTER":22.0697,"MEAN_ANOMALY":338.2131,"EPHEMERIS_TYPE":0,"CLASSIFICATION_TYPE":"U","NORAD_CAT_ID":26474,"ELEMENT_SET_NO":999,"REV_AT_EPOCH":39461,"BSTAR":0.0002297342,"MEAN_MOTION_DOT":3.638e-5,"MEAN_MOTION_DDOT":0},{"OBJECT_NAME":"ENVISAT","OBJECT_ID":"2002-009A","EPOCH":"2026-03-20T20:50:39.929280","MEAN_MOTION":14.39040749,"ECCENTRICITY":0.00012833,"INCLINATION":98.3748,"RA_OF_ASC_NODE":33.2009,"ARG_OF_PERICENTER":81.9691,"MEAN_ANOMALY":300.1485,"EPHEMERIS_TYPE":0,"CLASSIFICATION_TYPE":"U","NORAD_CAT_ID":27386,"ELEMENT_SET_NO":999,"REV_AT_EPOCH":26078,"BSTAR":4.978677e-5,"MEAN_MOTION_DOT":1.11e-6,"MEAN_MOTION_DDOT":0},{"OBJECT_NAME":"IDEFIX & ARIANE 42P R/B","OBJECT_ID":"2002-021B","EPOCH":"2026-03-20T18:04:14.682144","MEAN_MOTION":14.31033319,"ECCENTRICITY":0.00122102,"INCLINATION":98.5883,"RA_OF_ASC_NODE":18.2277,"ARG_OF_PERICENTER":150.0014,"MEAN_ANOMALY":210.1871,"EPHEMERIS_TYPE":0,"CLASSIFICATION_TYPE":"U","NORAD_CAT_ID":27422,"ELEMENT_SET_NO":999,"REV_AT_EPOCH":24560,"BSTAR":0.00010898817,"MEAN_MOTION_DOT":2.43e-6,"MEAN_MOTION_DDOT":0},{"OBJECT_NAME":"AQUA","OBJECT_ID":"2002-022A","EPOCH":"2026-03-20T21:38:16.899072","MEAN_MOTION":14.62001336,"ECCENTRICITY":8.118e-5,"INCLINATION":98.4195,"RA_OF_ASC_NODE":47.4723,"ARG_OF_PERICENTER":113.7632,"MEAN_ANOMALY":269.5565,"EPHEMERIS_TYPE":0,"CLASSIFICATION_TYPE":"U","NORAD_CAT_ID":27424,"ELEMENT_SET_NO":999,"REV_AT_EPOCH":27037,"BSTAR":0.00017033409,"MEAN_MOTION_DOT":8.05e-6,"MEAN_MOTION_DDOT":0},{"OBJECT_NAME":"CZ-4B R/B","OBJECT_ID":"2002-024C","EPOCH":"2026-03-20T22:00:25.577280","MEAN_MOTION":14.14549588,"ECCENTRICITY":0.00499001,"INCLINATION":98.8813,"RA_OF_ASC_NODE":133.2658,"ARG_OF_PERICENTER":352.3736,"MEAN_ANOMALY":181.2523,"EPHEMERIS_TYPE":0,"CLASSIFICATION_TYPE":"U","NORAD_CAT_ID":27432,"ELEMENT_SET_NO":999,"REV_AT_EPOCH":23082,"BSTAR":4.0036623e-5,"MEAN_MOTION_DOT":3.3e-7,"MEAN_MOTION_DDOT":0},{"OBJECT_NAME":"MIDORI II (ADEOS-II)","OBJECT_ID":"2002-056A","EPOCH":"2026-03-20T20:44:46.066848","MEAN_MOTION":14.29293116,"ECCENTRICITY":0.00011246,"INCLINATION":98.7789,"RA_OF_ASC_NODE":38.4206,"ARG_OF_PERICENTER":28.4412,"MEAN_ANOMALY":331.6831,"EPHEMERIS_TYPE":0,"CLASSIFICATION_TYPE":"U","NORAD_CAT_ID":27597,"ELEMENT_SET_NO":999,"REV_AT_EPOCH":21189,"BSTAR":0.00011875747,"MEAN_MOTION_DOT":2.57e-6,"MEAN_MOTION_DDOT":0},{"OBJECT_NAME":"H-2A R/B","OBJECT_ID":"2002-056E","EPOCH":"2026-03-20T20:55:42.062304","MEAN_MOTION":14.33767641,"ECCENTRICITY":0.0071098,"INCLINATION":98.3223,"RA_OF_ASC_NODE":39.8132,"ARG_OF_PERICENTER":127.6479,"MEAN_ANOMALY":287.3113,"EPHEMERIS_TYPE":0,"CLASSIFICATION_TYPE":"U","NORAD_CAT_ID":27601,"ELEMENT_SET_NO":999,"REV_AT_EPOCH":21571,"BSTAR":9.5575856e-5,"MEAN_MOTION_DOT":2.32e-6,"MEAN_MOTION_DDOT":0},{"OBJECT_NAME":"CZ-4B R/B","OBJECT_ID":"2003-049C","EPOCH":"2026-03-20T22:28:32.818944","MEAN_MOTION":14.55029956,"ECCENTRICITY":0.00478007,"INCLINATION":98.6889,"RA_OF_ASC_NODE":75.2834,"ARG_OF_PERICENTER":196.0799,"MEAN_ANOMALY":163.8883,"EPHEMERIS_TYPE":0,"CLASSIFICATION_TYPE":"U","NORAD_CAT_ID":28059,"ELEMENT_SET_NO":999,"REV_AT_EPOCH":18823,"BSTAR":8.0768306e-5,"MEAN_MOTION_DOT":3.02e-6,"MEAN_MOTION_DDOT":0},{"OBJECT_NAME":"CZ-2C R/B","OBJECT_ID":"2004-012C","EPOCH":"2026-03-20T03:47:51.059904","MEAN_MOTION":15.65689873,"ECCENTRICITY":0.0012937,"INCLINATION":97.72,"RA_OF_ASC_NODE":145.4513,"ARG_OF_PERICENTER":266.603,"MEAN_ANOMALY":93.3749,"EPHEMERIS_TYPE":0,"CLASSIFICATION_TYPE":"U","NORAD_CAT_ID":28222,"ELEMENT_SET_NO":999,"REV_AT_EPOCH":20591,"BSTAR":0.00041046893,"MEAN_MOTION_DOT":0.00041551,"MEAN_MOTION_DDOT":0},{"OBJECT_NAME":"SL-16 R/B","OBJECT_ID":"2004-021B","EPOCH":"2026-03-20T18:30:17.404992","MEAN_MOTION":14.14593505,"ECCENTRICITY":0.00045937,"INCLINATION":70.9998,"RA_OF_ASC_NODE":209.2369,"ARG_OF_PERICENTER":355.9383,"MEAN_ANOMALY":4.1702,"EPHEMERIS_TYPE":0,"CLASSIFICATION_TYPE":"U","NORAD_CAT_ID":28353,"ELEMENT_SET_NO":999,"REV_AT_EPOCH":12440,"BSTAR":-5.8357574e-5,"MEAN_MOTION_DOT":-1.6e-6,"MEAN_MOTION_DDOT":0},{"OBJECT_NAME":"CZ-4B R/B","OBJECT_ID":"2004-035C","EPOCH":"2026-03-20T23:14:04.608096","MEAN_MOTION":15.29243951,"ECCENTRICITY":0.00300969,"INCLINATION":97.3473,"RA_OF_ASC_NODE":114.0756,"ARG_OF_PERICENTER":289.5404,"MEAN_ANOMALY":70.2587,"EPHEMERIS_TYPE":0,"CLASSIFICATION_TYPE":"U","NORAD_CAT_ID":28415,"ELEMENT_SET_NO":999,"REV_AT_EPOCH":18163,"BSTAR":0.00026335189,"MEAN_MOTION_DOT":7.497e-5,"MEAN_MOTION_DDOT":0},{"OBJECT_NAME":"CZ-2C R/B","OBJECT_ID":"2004-046B","EPOCH":"2026-03-20T16:54:32.804640","MEAN_MOTION":14.26995708,"ECCENTRICITY":0.01403975,"INCLINATION":98.198,"RA_OF_ASC_NODE":354.0025,"ARG_OF_PERICENTER":122.0427,"MEAN_ANOMALY":239.4481,"EPHEMERIS_TYPE":0,"CLASSIFICATION_TYPE":"U","NORAD_CAT_ID":28480,"ELEMENT_SET_NO":999,"REV_AT_EPOCH":11007,"BSTAR":6.0703438e-5,"MEAN_MOTION_DOT":1.24e-6,"MEAN_MOTION_DDOT":0},{"OBJECT_NAME":"ARIANE 5 R/B","OBJECT_ID":"2004-049H","EPOCH":"2026-03-20T22:48:38.716704","MEAN_MOTION":14.85284921,"ECCENTRICITY":0.00832034,"INCLINATION":98.2643,"RA_OF_ASC_NODE":248.8303,"ARG_OF_PERICENTER":315.1907,"MEAN_ANOMALY":44.2607,"EPHEMERIS_TYPE":0,"CLASSIFICATION_TYPE":"U","NORAD_CAT_ID":28499,"ELEMENT_SET_NO":999,"REV_AT_EPOCH":14746,"BSTAR":7.6636825e-5,"MEAN_MOTION_DOT":6.34e-6,"MEAN_MOTION_DDOT":0},{"OBJECT_NAME":"CZ-2D R/B","OBJECT_ID":"2005-024B","EPOCH":"2026-03-20T06:56:07.828800","MEAN_MOTION":15.61045673,"ECCENTRICITY":0.0003983,"INCLINATION":97.3582,"RA_OF_ASC_NODE":94.8309,"ARG_OF_PERICENTER":16.3856,"MEAN_ANOMALY":343.753,"EPHEMERIS_TYPE":0,"CLASSIFICATION_TYPE":"U","NORAD_CAT_ID":28738,"ELEMENT_SET_NO":999,"REV_AT_EPOCH":14143,"BSTAR":0.0003545,"MEAN_MOTION_DOT":0.00029756,"MEAN_MOTION_DDOT":0}]
